{"type": "FeatureCollection", "features": [{"type": "Feature", "properties": {"name": "River outlet", "type": "river_outlet", "source": "DEMNAS D8 derived", "catchmentAreaKm2": 28.3, "nearestIup": "BUMI SAKAKARYA", "nearestIupKm": 10.1}, "geometry": {"type": "Point", "coordinates": [124.6233, -1.6405]}}, {"type": "Feature", "properties": {"name": "River outlet", "type": "river_outlet", "source": "DEMNAS D8 derived", "catchmentAreaKm2": 75.7, "nearestIup": "BUMI SAKAKARYA", "nearestIupKm": 6.8}, "geometry": {"type": "Point", "coordinates": [124.5495, -1.6471]}}, {"type": "Feature", "properties": {"name": "River outlet", "type": "river_outlet", "source": "DEMNAS D8 derived", "catchmentAreaKm2": 43.2, "nearestIup": "SAPTAWIRASTA MANDIRI", "nearestIupKm": 16.0}, "geometry": {"type": "Point", "coordinates": [124.7013, -1.6567]}}, {"type": "Feature", "properties": {"name": "River outlet", "type": "river_outlet", "source": "DEMNAS D8 derived", "catchmentAreaKm2": 157.3, "nearestIup": "BUMI SAKAKARYA", "nearestIupKm": 9.0}, "geometry": {"type": "Point", "coordinates": [124.4979, -1.6573]}}, {"type": "Feature", "properties": {"name": "River outlet", "type": "river_outlet", "source": "DEMNAS D8 derived", "catchmentAreaKm2": 59.1, "nearestIup": "TALIABU MINERALINDO JAYA SAKTI ", "nearestIupKm": 14.3}, "geometry": {"type": "Point", "coordinates": [124.4073, -1.6615]}}, {"type": "Feature", "properties": {"name": "River outlet", "type": "river_outlet", "source": "DEMNAS D8 derived", "catchmentAreaKm2": 42.9, "nearestIup": "BUMI SAKAKARYA", "nearestIupKm": 11.7}, "geometry": {"type": "Point", "coordinates": [124.4661, -1.6633]}}, {"type": "Feature", "properties": {"name": "River outlet", "type": "river_outlet", "source": "DEMNAS D8 derived", "catchmentAreaKm2": 45.0, "nearestIup": "BUMI SAKAKARYA", "nearestIupKm": 13.6}, "geometry": {"type": "Point", "coordinates": [124.4475, -1.6639]}}, {"type": "Feature", "properties": {"name": "River outlet", "type": "river_outlet", "source": "DEMNAS D8 derived", "catchmentAreaKm2": 9.0, "nearestIup": "TALIABU MINERALINDO JAYA SAKTI ", "nearestIupKm": 13.7}, "geometry": {"type": "Point", "coordinates": [124.4211, -1.6645]}}, {"type": "Feature", "properties": {"name": "River outlet", "type": "river_outlet", "source": "DEMNAS D8 derived", "catchmentAreaKm2": 12.4, "nearestIup": "BUMI SAKAKARYA", "nearestIupKm": 5.9}, "geometry": {"type": "Point", "coordinates": [124.5297, -1.6645]}}, {"type": "Feature", "properties": {"name": "River outlet", "type": "river_outlet", "source": "DEMNAS D8 derived", "catchmentAreaKm2": 49.7, "nearestIup": "INDOMEGA DIRGASAKTI", "nearestIupKm": 14.3}, "geometry": {"type": "Point", "coordinates": [124.7337, -1.6645]}}, {"type": "Feature", "properties": {"name": "River outlet", "type": "river_outlet", "source": "DEMNAS D8 derived", "catchmentAreaKm2": 17.1, "nearestIup": "INDOMEGA DIRGASAKTI", "nearestIupKm": 12.9}, "geometry": {"type": "Point", "coordinates": [124.7469, -1.6711]}}, {"type": "Feature", "properties": {"name": "River outlet", "type": "river_outlet", "source": "DEMNAS D8 derived", "catchmentAreaKm2": 30.2, "nearestIup": "INDOMEGA DIRGASAKTI", "nearestIupKm": 11.3}, "geometry": {"type": "Point", "coordinates": [124.7709, -1.6771]}}, {"type": "Feature", "properties": {"name": "River outlet", "type": "river_outlet", "source": "DEMNAS D8 derived", "catchmentAreaKm2": 10.6, "nearestIup": "INDOMEGA DIRGASAKTI", "nearestIupKm": 10.9}, "geometry": {"type": "Point", "coordinates": [124.7805, -1.6783]}}, {"type": "Feature", "properties": {"name": "River outlet", "type": "river_outlet", "source": "DEMNAS D8 derived", "catchmentAreaKm2": 13.9, "nearestIup": "INDOMEGA DIRGASAKTI", "nearestIupKm": 9.2}, "geometry": {"type": "Point", "coordinates": [124.8189, -1.6945]}}, {"type": "Feature", "properties": {"name": "River outlet", "type": "river_outlet", "source": "DEMNAS D8 derived", "catchmentAreaKm2": 117.8, "nearestIup": "INDOMEGA DIRGASAKTI", "nearestIupKm": 9.7}, "geometry": {"type": "Point", "coordinates": [124.8495, -1.7035]}}, {"type": "Feature", "properties": {"name": "River outlet", "type": "river_outlet", "source": "DEMNAS D8 derived", "catchmentAreaKm2": 48.1, "nearestIup": "INDOMEGA CAHAYA BUMI PERSADA", "nearestIupKm": 6.1}, "geometry": {"type": "Point", "coordinates": [124.9299, -1.7167]}}, {"type": "Feature", "properties": {"name": "River outlet", "type": "river_outlet", "source": "DEMNAS D8 derived", "catchmentAreaKm2": 9.1, "nearestIup": "TALIABU MINERALINDO JAYA SAKTI ", "nearestIupKm": 8.5}, "geometry": {"type": "Point", "coordinates": [124.3719, -1.7401]}}, {"type": "Feature", "properties": {"name": "River outlet", "type": "river_outlet", "source": "DEMNAS D8 derived", "catchmentAreaKm2": 56.5, "nearestIup": "INDOMEGA CAHAYA BUMI PERSADA", "nearestIupKm": 2.9}, "geometry": {"type": "Point", "coordinates": [124.9947, -1.7497]}}, {"type": "Feature", "properties": {"name": "River outlet", "type": "river_outlet", "source": "DEMNAS D8 derived", "catchmentAreaKm2": 20.7, "nearestIup": "INDOMEGA CAHAYA BUMI PERSADA", "nearestIupKm": 5.1}, "geometry": {"type": "Point", "coordinates": [125.0139, -1.7611]}}, {"type": "Feature", "properties": {"name": "River outlet", "type": "river_outlet", "source": "DEMNAS D8 derived", "catchmentAreaKm2": 13.4, "nearestIup": "PATRIA SEKAR LAKSANA MULIA", "nearestIupKm": 6.4}, "geometry": {"type": "Point", "coordinates": [125.0559, -1.7707]}}, {"type": "Feature", "properties": {"name": "River outlet", "type": "river_outlet", "source": "DEMNAS D8 derived", "catchmentAreaKm2": 14.7, "nearestIup": "WIRA BAHANA PERKASA MAKMUR", "nearestIupKm": 2.8}, "geometry": {"type": "Point", "coordinates": [125.1705, -1.7791]}}, {"type": "Feature", "properties": {"name": "River outlet", "type": "river_outlet", "source": "DEMNAS D8 derived", "catchmentAreaKm2": 88.5, "nearestIup": "TALIABU MINERALINDO JAYA SAKTI ", "nearestIupKm": 8.2}, "geometry": {"type": "Point", "coordinates": [124.3581, -1.7917]}}, {"type": "Feature", "properties": {"name": "River outlet", "type": "river_outlet", "source": "DEMNAS D8 derived", "catchmentAreaKm2": 13.0, "nearestIup": "ZOUK", "nearestIupKm": 2.8}, "geometry": {"type": "Point", "coordinates": [125.1951, -1.7971]}}, {"type": "Feature", "properties": {"name": "River outlet", "type": "river_outlet", "source": "DEMNAS D8 derived", "catchmentAreaKm2": 9.0, "nearestIup": "TALIABU MINERALINDO TATA PERSADA", "nearestIupKm": 6.0}, "geometry": {"type": "Point", "coordinates": [124.3473, -1.8205]}}, {"type": "Feature", "properties": {"name": "River outlet", "type": "river_outlet", "source": "DEMNAS D8 derived", "catchmentAreaKm2": 53.9, "nearestIup": "ZOUK", "nearestIupKm": 13.1}, "geometry": {"type": "Point", "coordinates": [125.3031, -1.8271]}}, {"type": "Feature", "properties": {"name": "River outlet", "type": "river_outlet", "source": "DEMNAS D8 derived", "catchmentAreaKm2": 21.3, "nearestIup": "ZOUK", "nearestIupKm": 6.3}, "geometry": {"type": "Point", "coordinates": [125.1681, -1.8739]}}, {"type": "Feature", "properties": {"name": "River outlet", "type": "river_outlet", "source": "DEMNAS D8 derived", "catchmentAreaKm2": 92.2, "nearestIup": "ZOUK", "nearestIupKm": 8.7}, "geometry": {"type": "Point", "coordinates": [125.1285, -1.8745]}}, {"type": "Feature", "properties": {"name": "River outlet", "type": "river_outlet", "source": "DEMNAS D8 derived", "catchmentAreaKm2": 77.2, "nearestIup": "PATRIA SEKARJAYA", "nearestIupKm": 1.7}, "geometry": {"type": "Point", "coordinates": [125.0439, -1.8859]}}, {"type": "Feature", "properties": {"name": "River outlet", "type": "river_outlet", "source": "DEMNAS D8 derived", "catchmentAreaKm2": 14.8, "nearestIup": "PATRIA SEKARJAYA", "nearestIupKm": 3.0}, "geometry": {"type": "Point", "coordinates": [125.0277, -1.8901]}}, {"type": "Feature", "properties": {"name": "River outlet", "type": "river_outlet", "source": "DEMNAS D8 derived", "catchmentAreaKm2": 74.3, "nearestIup": "INDOMEGA DARMA INDAH SAKTI", "nearestIupKm": 6.7}, "geometry": {"type": "Point", "coordinates": [124.8333, -1.8925]}}, {"type": "Feature", "properties": {"name": "River outlet", "type": "river_outlet", "source": "DEMNAS D8 derived", "catchmentAreaKm2": 14.0, "nearestIup": "INDOMEGA DARMA INDAH SAKTI", "nearestIupKm": 7.7}, "geometry": {"type": "Point", "coordinates": [124.8471, -1.8931]}}, {"type": "Feature", "properties": {"name": "River outlet", "type": "river_outlet", "source": "DEMNAS D8 derived", "catchmentAreaKm2": 92.8, "nearestIup": "ANDALAN TERANG", "nearestIupKm": 8.5}, "geometry": {"type": "Point", "coordinates": [124.8777, -1.8955]}}, {"type": "Feature", "properties": {"name": "River outlet", "type": "river_outlet", "source": "DEMNAS D8 derived", "catchmentAreaKm2": 14.7, "nearestIup": "PATRIA SEKARJAYA", "nearestIupKm": 4.3}, "geometry": {"type": "Point", "coordinates": [125.0169, -1.8967]}}, {"type": "Feature", "properties": {"name": "River outlet", "type": "river_outlet", "source": "DEMNAS D8 derived", "catchmentAreaKm2": 25.2, "nearestIup": "WIRA BAHANA PERKASA SEJAHTERA", "nearestIupKm": 9.0}, "geometry": {"type": "Point", "coordinates": [124.7691, -1.9189]}}, {"type": "Feature", "properties": {"name": "River outlet", "type": "river_outlet", "source": "DEMNAS D8 derived", "catchmentAreaKm2": 71.4, "nearestIup": "WIRA BAHANA PERKASA SEJAHTERA", "nearestIupKm": 8.7}, "geometry": {"type": "Point", "coordinates": [124.7541, -1.9195]}}, {"type": "Feature", "properties": {"name": "River outlet", "type": "river_outlet", "source": "DEMNAS D8 derived", "catchmentAreaKm2": 13.7, "nearestIup": "ANDALAN TERANG", "nearestIupKm": 10.4}, "geometry": {"type": "Point", "coordinates": [124.9431, -1.9267]}}, {"type": "Feature", "properties": {"name": "River outlet", "type": "river_outlet", "source": "DEMNAS D8 derived", "catchmentAreaKm2": 28.8, "nearestIup": "BINTANI KARYA BUMI PERSADA", "nearestIupKm": 4.0}, "geometry": {"type": "Point", "coordinates": [124.3695, -1.9333]}}, {"type": "Feature", "properties": {"name": "River outlet", "type": "river_outlet", "source": "DEMNAS D8 derived", "catchmentAreaKm2": 143.6, "nearestIup": "WIRA BAHANA PERKASA SEJAHTERA", "nearestIupKm": 10.3}, "geometry": {"type": "Point", "coordinates": [124.7397, -1.9339]}}, {"type": "Feature", "properties": {"name": "River outlet", "type": "river_outlet", "source": "DEMNAS D8 derived", "catchmentAreaKm2": 13.4, "nearestIup": "BINTANI KARYA BUMI PERSADA", "nearestIupKm": 4.2}, "geometry": {"type": "Point", "coordinates": [124.3719, -1.9351]}}, {"type": "Feature", "properties": {"name": "River outlet", "type": "river_outlet", "source": "DEMNAS D8 derived", "catchmentAreaKm2": 18.0, "nearestIup": "BINTARA HARDASURYA", "nearestIupKm": 10.0}, "geometry": {"type": "Point", "coordinates": [124.7223, -1.9423]}}, {"type": "Feature", "properties": {"name": "River outlet", "type": "river_outlet", "source": "DEMNAS D8 derived", "catchmentAreaKm2": 12.6, "nearestIup": "BINTARA HARDASURYA", "nearestIupKm": 7.7}, "geometry": {"type": "Point", "coordinates": [124.6965, -1.9591]}}, {"type": "Feature", "properties": {"name": "River outlet", "type": "river_outlet", "source": "DEMNAS D8 derived", "catchmentAreaKm2": 36.0, "nearestIup": "BINTANI KARYA BUMI PERSADA", "nearestIupKm": 7.5}, "geometry": {"type": "Point", "coordinates": [124.3887, -1.9633]}}, {"type": "Feature", "properties": {"name": "River outlet", "type": "river_outlet", "source": "DEMNAS D8 derived", "catchmentAreaKm2": 15.5, "nearestIup": "BINTANI MEGAH KARYA PERSADA", "nearestIupKm": 2.3}, "geometry": {"type": "Point", "coordinates": [124.5147, -1.9855]}}, {"type": "Feature", "properties": {"name": "River outlet", "type": "river_outlet", "source": "DEMNAS D8 derived", "catchmentAreaKm2": 170.9, "nearestIup": "BINTARA HARDASURYA", "nearestIupKm": 6.1}, "geometry": {"type": "Point", "coordinates": [124.6353, -1.9861]}}, {"type": "Feature", "properties": {"name": "River outlet", "type": "river_outlet", "source": "DEMNAS D8 derived", "catchmentAreaKm2": 35.6, "nearestIup": "BINTANI MEGAH KARYA PERSADA", "nearestIupKm": 2.9}, "geometry": {"type": "Point", "coordinates": [124.5117, -1.9903]}}, {"type": "Feature", "properties": {"name": "River outlet", "type": "river_outlet", "source": "DEMNAS D8 derived", "catchmentAreaKm2": 159.5, "nearestIup": "BINTANI MEGAH KARYA PERSADA", "nearestIupKm": 6.2}, "geometry": {"type": "Point", "coordinates": [124.5807, -1.9987]}}, {"type": "Feature", "properties": {"name": "River outlet", "type": "river_outlet", "source": "DEMNAS D8 derived", "catchmentAreaKm2": 17.9, "nearestIup": "BINTANI MEGAH KARYA PERSADA", "nearestIupKm": 9.5}, "geometry": {"type": "Point", "coordinates": [124.4595, -2.0203]}}, {"type": "Feature", "properties": {"name": "River outlet", "type": "river_outlet", "source": "DEMNAS D8 derived", "catchmentAreaKm2": 13.1, "nearestIup": "BINTANI MEGAH KARYA PERSADA", "nearestIupKm": 14.7}, "geometry": {"type": "Point", "coordinates": [124.4097, -2.0251]}}]}