{
  "type": "FeatureCollection",
  "features": [
    {
      "type": "Feature",
      "properties": {
        "name": "Bobong",
        "type": "town",
        "population": 15000,
        "is_capital": true,
        "source": "placeholder",
        "version": "0.1.0"
      },
      "geometry": {
        "type": "Point",
        "coordinates": [124.52, -1.68]
      }
    },
    {
      "type": "Feature",
      "properties": {
        "name": "Lede",
        "type": "town",
        "population": 8000,
        "is_capital": false,
        "source": "placeholder",
        "version": "0.1.0"
      },
      "geometry": {
        "type": "Point",
        "coordinates": [124.62, -1.72]
      }
    },
    {
      "type": "Feature",
      "properties": {
        "name": "Gela",
        "type": "village",
        "population": 3000,
        "is_capital": false,
        "source": "placeholder",
        "version": "0.1.0"
      },
      "geometry": {
        "type": "Point",
        "coordinates": [124.78, -1.75]
      }
    },
    {
      "type": "Feature",
      "properties": {
        "name": "Samuya",
        "type": "village",
        "population": 2000,
        "is_capital": false,
        "source": "placeholder",
        "version": "0.1.0"
      },
      "geometry": {
        "type": "Point",
        "coordinates": [125.10, -1.78]
      }
    },
    {
      "type": "Feature",
      "properties": {
        "name": "Pencadu",
        "type": "village",
        "population": 2500,
        "is_capital": false,
        "source": "placeholder",
        "version": "0.1.0"
      },
      "geometry": {
        "type": "Point",
        "coordinates": [124.85, -2.02]
      }
    },
    {
      "type": "Feature",
      "properties": {
        "name": "Tabona",
        "type": "village",
        "population": 3500,
        "is_capital": false,
        "source": "placeholder",
        "version": "0.1.0"
      },
      "geometry": {
        "type": "Point",
        "coordinates": [124.55, -1.85]
      }
    }
  ]
}
