{
  "type": "FeatureCollection",
  "features": [
    {
      "type": "Feature",
      "properties": {
        "name": "IUP PT Surya Taliabu Mining",
        "type": "mining_permit",
        "permit_class": "Production",
        "commodity": "Nickel",
        "issuer": "ESDM",
        "valid_from": "2020-01-01",
        "valid_to": "2040-01-01",
        "source": "placeholder",
        "version": "0.1.0"
      },
      "geometry": {
        "type": "Polygon",
        "coordinates": [
          [
            [124.88, -1.78],
            [124.98, -1.76],
            [125.02, -1.82],
            [125.00, -1.90],
            [124.92, -1.92],
            [124.86, -1.88],
            [124.85, -1.82],
            [124.88, -1.78]
          ]
        ]
      }
    },
    {
      "type": "Feature",
      "properties": {
        "name": "IUP PT Mineral Sula",
        "type": "mining_permit",
        "permit_class": "Exploration",
        "commodity": "Gold",
        "issuer": "ESDM",
        "valid_from": "2022-06-15",
        "valid_to": "2027-06-15",
        "source": "placeholder",
        "version": "0.1.0"
      },
      "geometry": {
        "type": "Polygon",
        "coordinates": [
          [
            [124.58, -1.85],
            [124.68, -1.82],
            [124.72, -1.88],
            [124.70, -1.96],
            [124.62, -1.98],
            [124.56, -1.94],
            [124.55, -1.88],
            [124.58, -1.85]
          ]
        ]
      }
    }
  ]
}
